#aV2009 10 13  0  0   .00000000      96 DD+AD WGS84 FIT  NGA
## 1553 172800.00000000   900.00000000 55117  .0000000000000
+   32     1  2  3  4  5  6  7  8  9 10 11 12 13 14 15 16 17
+         18 19 20 21 22 23 24 25 26 27 28 29 30 31 32  0  0
+          0  0  0  0  0  0  0  0  0  0  0  0  0  0  0  0  0
+          0  0  0  0  0  0  0  0  0  0  0  0  0  0  0  0  0
+          0  0  0  0  0  0  0  0  0  0  0  0  0  0  0  0  0
++         0  0  0  0  0  0  0  0  0  0  0  0  0  0  0  0  0
++         0  0  0  0  0  0  0  0  0  0  0  0  0  0  0  0  0
++         0  0  0  0  0  0  0  0  0  0  0  0  0  0  0  0  0
++         0  0  0  0  0  0  0  0  0  0  0  0  0  0  0  0  0
++         0  0  0  0  0  0  0  0  0  0  0  0  0  0  0  0  0
%c cc cc ccc ccc cccc cccc cccc cccc ccccc ccccc ccccc ccccc
%c cc cc ccc ccc cccc cccc cccc cccc ccccc ccccc ccccc ccccc
%f  0.0000000  0.000000000  0.00000000000  0.000000000000000
%f  0.0000000  0.000000000  0.00000000000  0.000000000000000
%i    0    0    0    0      0      0      0      0         0
%i    0    0    0    0      0      0      0      0         0
/*      NGA, ST. LOUIS,MO.                                  
/*   EPHEMERIS COMPUTED FROM  3 DAYS OF DATA                
/* CCCCCCCCCCCCCCCCCCCCCCCCCCCCCCCCCCCCCCCCCCCCCCCCCCCCCCCCC
/* CCCCCCCCCCCCCCCCCCCCCCCCCCCCCCCCCCCCCCCCCCCCCCCCCCCCCCCCC
*  2009 10 13  4 15   .00000000                                                 
P  1  -2339.070872 -15474.890866 -21573.038129    -60.188378                    
V  1  26957.407775   3121.078977  -5085.567353      -.013277                    
P  2  19863.705657  -7013.342957 -15988.124103    180.511201                    
V  2 -10239.291828  17828.050592 -21056.536801       .036000                    
P  3 -16147.456059   2775.644423  20612.447626    459.886459                    
V  3 -12473.119392 -23996.845604  -6083.135365       .050484                    
P  4  16544.940601   3393.098764 -20719.833701   -308.474735                    
V  4 -15394.075524  20932.957188  -8559.937577      -.176950                    
P  5  24367.541861  -3763.255662   9955.111510    -66.761314                    
V  5  12199.647219   4102.285093 -28207.793973       .088919                    
P  6 -17231.083836  -1338.149137  20370.276035    252.194583                    
V  6  -9781.525575 -23620.500101  -9820.707721       .043246                    
P  7  -2774.545460  21144.533215  15717.327894      9.718339                    
V  7 -13774.408800  14662.597209 -22281.474332      -.007389                    
P  8   7976.184814  12622.351430  21869.930990   -224.981430                    
V  8 -18847.063527  20506.921056  -5460.152406      -.016757                    
P  9  15098.439616 -21810.548829   -878.456696     82.694788                    
V  9   2054.349525   1099.805956  32152.748044       .020889                    
P 10  25613.224885  -1165.787450   7401.456624    -25.747163                    
V 10   9009.121615   4037.579489 -29550.949528      -.009430                    
P 11 -10546.909822  24154.121361   -866.196992    -23.979461                    
V 11  -5208.687334  -1486.230259  30288.290949      -.018509                    
P 12  12511.697192 -12090.631276 -19975.698265   -205.263643                    
V 12  25083.202904   4738.050044  12928.346532       .054730                    
P 13   5379.101598  25588.538942  -4732.594020    305.581316                    
V 13  -3479.596086  -4983.153895 -31751.393664       .002831                    
P 14 -14403.958139 -19755.200543 -10404.214990    -38.421252                    
V 14  -2947.095654 -13109.082287  28474.268449       .050396                    
P 15  11660.141128 -10925.473135  21234.082409   -320.092269                    
V 15  11141.867685  24520.818660   6582.270620      -.004261                    
P 16 -26453.684140  -2366.501226   2734.381094      3.062159                    
V 16  -2976.542155  -2828.165957 -31533.184899      -.040303                    
P 17  15183.592327  19284.279658 -10330.570863     92.667323                    
V 17   2517.549340  13130.809398  27819.815706       .032653                    
P 18  -9414.850859 -15928.392139  19433.579684     19.781158                    
V 18  23985.483102   2658.121568  13602.984720       .027972                    
P 19 -11365.740133  12157.268891  20681.784524      6.561001                    
V 19  -9029.778873 -24658.727036   9823.012303      -.018119                    
P 20  -8425.938573  14366.004720 -20805.463065     70.111786                    
V 20 -25970.220796  -3746.704795   8025.670957      -.008874                    
P 21  -1847.773808 -19249.677224  18222.288839    -14.787378                    
V 21  16040.729112 -16471.748600 -16653.732911      -.023314                    
P 22 -20438.422409 -12330.661674  11897.957554    188.801961                    
V 22  15140.602178   -315.919984  25967.715734      -.008015                    
P 23  -3594.786868  20711.324289 -16080.365222    387.557204                    
V 23  -9364.903270 -18291.884889 -21803.919098      -.004757                    
P 24  11740.605513 -22583.095276   8150.230020    228.103626                    
V 24   8648.847248  -5927.017894 -29059.305538       .029576                    
P 25  -7510.756457  23881.781224   9489.224615    629.269375                    
V 25  -7872.877823   8615.181138 -28768.186386       .136658                    
P 26 -10798.481361 -23728.329050  -3955.910752      8.240579                    
V 26    611.014923  -4861.067972  32241.996565      -.013697                    
P 27  17659.524817 -19254.133164   5344.321356     90.811657                    
V 27  -1536.787242   6118.052132  31171.181961       .034447                    
P 28  18512.826275  13210.813832  14415.535180    -25.919636                    
V 28 -17444.255068  -1297.562771  24037.183357       .001536                    
P 29  -4030.134201 -25215.634785  -7291.554141     65.527774                    
V 29   5788.553066   7837.138602 -29878.915474       .031872                    
P 30   -270.790503 -15624.873220 -21866.739481    184.438126                    
V 30  26774.240976   2338.775757  -1976.658232       .030537                    
P 31 -16987.432091   -496.430184 -20236.843815    -63.002846                    
V 31  15293.531901 -21159.912386 -12053.407091       .005831                    
P 32 -16741.505715   9094.242176 -18000.445191    178.920361                    
V 32 -22765.765742  -6974.072119  17566.633639      -.073162                    
EOF
